{"type":"FeatureCollection","features":[{"type":"Feature","properties":{"@id":"way/1273377975","access":"no","amenity":"public_bookcase","indoor":"yes","level":"-1"},"geometry":{"type":"Polygon","coordinates":[[[16.366928,48.200933],[16.366911,48.20092],[16.366909,48.200918],[16.366909,48.200916],[16.366909,48.200914],[16.366911,48.200912],[16.366914,48.20091],[16.366917,48.20091],[16.36692,48.20091],[16.366923,48.20091],[16.366926,48.200912],[16.366943,48.200924],[16.366945,48.200926],[16.366946,48.200928],[16.366946,48.20093],[16.366945,48.200932],[16.366943,48.200934],[16.36694,48.200935],[16.366937,48.200935],[16.366933,48.200935],[16.36693,48.200934],[16.366928,48.200933]]]},"id":"c5Mjg"},{"type":"Feature","properties":{"@id":"node/617152862","amenity":"public_bookcase","description":"Bücher- und Dingetausch Schrank"},"geometry":{"type":"Point","coordinates":[16.35687,48.188111]},"id":"A5MzQ"},{"type":"Feature","properties":{"@id":"node/1298502479","amenity":"public_bookcase","website":"https://www.offener-buecherschrank.at/alsergrund-heinz-heger-park/","wheelchair":"yes"},"geometry":{"type":"Point","coordinates":[16.343401,48.216737]},"id":"A0ODY"},{"type":"Feature","properties":{"@id":"node/5520039186","amenity":"public_bookcase","covered":"booth"},"geometry":{"type":"Point","coordinates":[16.532202,48.249098]},"id":"E5NTk"},{"type":"Feature","properties":{"@id":"node/6234527052","amenity":"public_bookcase","check_date":"2021-06-04"},"geometry":{"type":"Point","coordinates":[16.400764,48.261913]},"id":"Y3Mjg"},{"type":"Feature","properties":{"@id":"node/6343483069","amenity":"public_bookcase","check_date":"2022-05-30","wikimedia_commons":"File:Buecherschrank Sobieskiplatz Wien.jpg"},"geometry":{"type":"Point","coordinates":[16.353397,48.22678]},"id":"gwMjI"},{"type":"Feature","properties":{"@id":"node/6685658414","amenity":"public_bookcase","check_date":"2022-09-24","lit":"no","opening_hours":"24/7","operator":"MIGRA, ARWAG &amp; Schwarzatal","public_bookcase:type":"wooden_cabinet","wheelchair":"yes"},"geometry":{"type":"Point","coordinates":[16.422297,48.17888]},"id":"A2NDI"},{"type":"Feature","properties":{"@id":"node/8296168262","amenity":"public_bookcase"},"geometry":{"type":"Point","coordinates":[16.385705,48.223006]},"id":"M3ODE"},{"type":"Feature","properties":{"@id":"node/8361274062","amenity":"public_bookcase","check_date":"2024-01-15","opening_hours":"24/7","public_bookcase:type":"phone_box"},"geometry":{"type":"Point","coordinates":[16.303583,48.196487]},"id":"A5Nzg"},{"type":"Feature","properties":{"@id":"node/8530699046","amenity":"public_bookcase","check_date":"2023-09-23"},"geometry":{"type":"Point","coordinates":[16.331406,48.212397]},"id":"A4ODc"},{"type":"Feature","properties":{"@id":"node/8569193717","amenity":"public_bookcase","check_date":"2024-03-02","colour":"grey","public_bookcase:type":"phone_box"},"geometry":{"type":"Point","coordinates":[16.283676,48.176612]},"id":"kxNTI"},{"type":"Feature","properties":{"@id":"node/8821312537","amenity":"public_bookcase"},"geometry":{"type":"Point","coordinates":[16.485887,48.241401]},"id":"ExODc"},{"type":"Feature","properties":{"@id":"node/8898359352","amenity":"public_bookcase","opening_hours":"\"in den Öffnungszeiten den Mistplatzes\"","operator":"Mistplatz Hetzendorf"},"geometry":{"type":"Point","coordinates":[16.304119,48.161042]},"id":"E2MDA"},{"type":"Feature","properties":{"@id":"node/8934158076","amenity":"public_bookcase","operator":"Pfadfindergruppe Wien 39","public_bookcase:type":"phone_box"},"geometry":{"type":"Point","coordinates":[16.267782,48.187992]},"id":"k0ODE"},{"type":"Feature","properties":{"@id":"node/9084869397","amenity":"public_bookcase","colour":"dark red","man_made":"telephone_box","public_bookcase:type":"phone_box"},"geometry":{"type":"Point","coordinates":[16.362624,48.185717]},"id":"I2Mjk"},{"type":"Feature","properties":{"@id":"node/9085056068","amenity":"public_bookcase","man_made":"telephone_box","public_bookcase:type":"phone_box"},"geometry":{"type":"Point","coordinates":[16.464151,48.15459]},"id":"A3ODc"},{"type":"Feature","properties":{"@id":"node/9445063190","amenity":"public_bookcase","location":"outdoor","operator":"MA48","public_bookcase:type":"phone_box","wikimedia_commons":"File:Offener Bücherschrank der MA48 am Schuhmeierplatz, Vienna.jpg"},"geometry":{"type":"Point","coordinates":[16.319478,48.210405]},"id":"I1MzU"},{"type":"Feature","properties":{"@id":"node/9471548018","amenity":"public_bookcase","public_bookcase:type":"phone_box","survey:date":"2022-02-03"},"geometry":{"type":"Point","coordinates":[16.363645,48.189816]},"id":"A0NjI"},{"type":"Feature","properties":{"@id":"node/9580761029","amenity":"public_bookcase"},"geometry":{"type":"Point","coordinates":[16.316939,48.2212]},"id":"U0ODQ"},{"type":"Feature","properties":{"@id":"node/9706294298","amenity":"public_bookcase"},"geometry":{"type":"Point","coordinates":[16.282997,48.195438]},"id":"I5OTU"},{"type":"Feature","properties":{"@id":"node/9761700805","amenity":"public_bookcase"},"geometry":{"type":"Point","coordinates":[16.330497,48.189702]},"id":"MzNjM"},{"type":"Feature","properties":{"@id":"node/9967833246","amenity":"public_bookcase","artwork_type":"sculpture","public_bookcase:type":"phone_box","tourism":"artwork","wikimedia_commons":"File:Bücherschrank Meidlinger Markt Wien.jpg"},"geometry":{"type":"Point","coordinates":[16.333164,48.181125]},"id":"M3MTg"},{"type":"Feature","properties":{"@id":"node/9967847540","amenity":"public_bookcase","operator":"Evangelischer Friedhof Matzleinsdorf","public_bookcase:type":"tombstone"},"geometry":{"type":"Point","coordinates":[16.361073,48.177754]},"id":"kxNTc"},{"type":"Feature","properties":{"@id":"node/9967847541","amenity":"public_bookcase","operator":"Evangelischer Friedhof Matzleinsdorf","public_bookcase:type":"tombstone"},"geometry":{"type":"Point","coordinates":[16.360663,48.179093]},"id":"UxNTc"},{"type":"Feature","properties":{"@id":"node/9967847542","amenity":"public_bookcase","operator":"Evangelischer Friedhof Matzleinsdorf","public_bookcase:type":"tombstone"},"geometry":{"type":"Point","coordinates":[16.36096,48.179282]},"id":"kwMzM"},{"type":"Feature","properties":{"@id":"node/9967847543","amenity":"public_bookcase","operator":"Evangelischer Friedhof Matzleinsdorf","public_bookcase:type":"tombstone"},"geometry":{"type":"Point","coordinates":[16.359298,48.178302]},"id":"Q0NTQ"},{"type":"Feature","properties":{"@id":"node/9967847544","amenity":"public_bookcase","operator":"Evangelischer Friedhof Matzleinsdorf","public_bookcase:type":"tombstone"},"geometry":{"type":"Point","coordinates":[16.359598,48.179168]},"id":"k0MTM"},{"type":"Feature","properties":{"@id":"node/9990829683","amenity":"public_bookcase","public_bookcase:type":"shelter"},"geometry":{"type":"Point","coordinates":[16.363868,48.195717]},"id":"E3NDc"},{"type":"Feature","properties":{"@id":"node/10008533917","amenity":"public_bookcase","contact:instagram":"https://www.instagram.com/buecher_1080/","public_bookcase:type":"wooden_cabinet","survey:date":"2022-09-08"},"geometry":{"type":"Point","coordinates":[16.352535,48.208141]},"id":"I2NDY"},{"type":"Feature","properties":{"@id":"node/10082914054","amenity":"public_bookcase","fixme":"location"},"geometry":{"type":"Point","coordinates":[16.330482,48.189541]},"id":"k3NTI"},{"type":"Feature","properties":{"@id":"node/10559927723","amenity":"public_bookcase","operator":"Verein Kunstraum18","website":"https://xn--bcherschrnke-whring-owbf72c.at/"},"geometry":{"type":"Point","coordinates":[16.328675,48.231538]},"id":"U2MTQ"},{"type":"Feature","properties":{"@id":"node/10559927724","amenity":"public_bookcase","lit":"no","opening_hours":"24/7","operator":"Verein Kunstraum18","website":"https://xn--bcherschrnke-whring-owbf72c.at/"},"geometry":{"type":"Point","coordinates":[16.336517,48.223593]},"id":"g0NjE"},{"type":"Feature","properties":{"@id":"node/10676419045","amenity":"public_bookcase","image":"https://i.imgur.com/QUnUwOB.jpg","image:0":"https://i.imgur.com/wx2TbAs.jpg"},"geometry":{"type":"Point","coordinates":[16.328275,48.165285]},"id":"UyMTE"},{"type":"Feature","properties":{"@id":"node/10676913463","amenity":"public_bookcase","image":"https://i.imgur.com/OEloXCA.jpg","public_bookcase:type":"phone_box"},"geometry":{"type":"Point","coordinates":[16.309097,48.167615]},"id":"M3MTc"},{"type":"Feature","properties":{"@id":"node/10712532299","amenity":"public_bookcase","public_bookcase:type":"glass_cabinet"},"geometry":{"type":"Point","coordinates":[16.407642,48.213468]},"id":"k3Njc"},{"type":"Feature","properties":{"@id":"node/10935236740","amenity":"public_bookcase","noname":"yes"},"geometry":{"type":"Point","coordinates":[16.370293,48.192913]},"id":"gyOTY"},{"type":"Feature","properties":{"@id":"node/10936644432","amenity":"public_bookcase","operator":"Bezirk Neubau"},"geometry":{"type":"Point","coordinates":[16.354298,48.203821]},"id":"EzODA"},{"type":"Feature","properties":{"@id":"node/10961750696","amenity":"public_bookcase","public_bookcase:type":"phone_box"},"geometry":{"type":"Point","coordinates":[16.320849,48.22491]},"id":"A4NjA"},{"type":"Feature","properties":{"@id":"node/10965459635","addr:city":"Wien","addr:postcode":"1220","addr:street":"Süßenbrunner Straße","amenity":"public_bookcase","lit":"yes","public_bookcase:type":"phone_box","source":"survey"},"geometry":{"type":"Point","coordinates":[16.478198,48.253824]},"id":"g3MTc"},{"type":"Feature","properties":{"@id":"node/11027673359","amenity":"public_bookcase","operator":"Agenda Margareten","public_bookcase:type":"phone_box","website":"https://www.agendamargareten.at/projekte-detail/offener-buecherschrank.html"},"geometry":{"type":"Point","coordinates":[16.356751,48.188163]},"id":"g2MzU"},{"type":"Feature","properties":{"@id":"node/11076079951","access":"yes","amenity":"public_bookcase","location":"outdoor","source":"survey"},"geometry":{"type":"Point","coordinates":[16.324666,48.166212]},"id":"c5Mjk"},{"type":"Feature","properties":{"@id":"node/11118627734","amenity":"public_bookcase","opening_hours":"24/7","public_bookcase:type":"phone_box"},"geometry":{"type":"Point","coordinates":[16.417358,48.211467]},"id":"UwODk"},{"type":"Feature","properties":{"@id":"node/11165618265","amenity":"public_bookcase"},"geometry":{"type":"Point","coordinates":[16.342704,48.207597]},"id":"A5MDI"},{"type":"Feature","properties":{"@id":"node/11203389148","amenity":"public_bookcase","public_bookcase:type":"phone_box"},"geometry":{"type":"Point","coordinates":[16.342068,48.224118]},"id":"I5ODk"},{"type":"Feature","properties":{"@id":"node/11215851986","amenity":"public_bookcase","public_bookcase:type":"phone_box","wheelchair":"yes"},"geometry":{"type":"Point","coordinates":[16.318011,48.224762]},"id":"czMTk"},{"type":"Feature","properties":{"@id":"node/11279642394","amenity":"public_bookcase","survey:date":"2023-10-21"},"geometry":{"type":"Point","coordinates":[16.299321,48.149916]},"id":"I1ODU"},{"type":"Feature","properties":{"@id":"node/11296503877","amenity":"public_bookcase","lit":"no","public_bookcase:type":"phone_box"},"geometry":{"type":"Point","coordinates":[16.33288,48.219891]},"id":"M1Nzc"},{"type":"Feature","properties":{"@id":"node/11646397208","amenity":"public_bookcase","public_bookcase:type":"metal_cabinet"},"geometry":{"type":"Point","coordinates":[16.344712,48.225213]},"id":"M2NjE"},{"type":"Feature","properties":{"@id":"node/11787955396","amenity":"public_bookcase"},"geometry":{"type":"Point","coordinates":[16.348522,48.195065]},"id":"k0NTc"},{"type":"Feature","properties":{"@id":"node/11810120333","amenity":"public_bookcase"},"geometry":{"type":"Point","coordinates":[16.332227,48.193659]},"id":"A1NDM"},{"type":"Feature","properties":{"@id":"node/10779950210","amenity":"public_bookcase","indoor":"yes","name":"48-Tandler Bücherschrank"},"geometry":{"type":"Point","coordinates":[16.264145,48.20266]},"id":"U2OTA"},{"type":"Feature","properties":{"@id":"node/11076911947","amenity":"public_bookcase","name":"Book2go"},"geometry":{"type":"Point","coordinates":[16.415598,48.213834]},"id":"c1NjQ"},{"type":"Feature","properties":{"@id":"node/1361482407","amenity":"public_bookcase","check_date":"2023-12-30","name":"Bookhaufen","source":"survey"},"geometry":{"type":"Point","coordinates":[16.403972,48.242084]},"id":"gwNjM"},{"type":"Feature","properties":{"@id":"node/11304912036","alt_name":"Büchertausch in der Meißauergasse","amenity":"public_bookcase","name":"Bücher Ecke"},"geometry":{"type":"Point","coordinates":[16.438098,48.248957]},"id":"I3NTk"},{"type":"Feature","properties":{"@id":"node/10607776689","access":"yes","amenity":"public_bookcase","covered":"yes","indoor":"no","name":"Bücherbox","public_bookcase:type":"wooden_cabinet"},"geometry":{"type":"Point","coordinates":[16.345065,48.228435]},"id":"Y2MDQ"},{"type":"Feature","properties":{"@id":"node/2813205030","addr:city":"Wien","addr:country":"AT","addr:postcode":"1080","addr:street":"Josef-Matthias-Hauer-Platz","amenity":"public_bookcase","check_date":"2023-10-26","name":"Bücherschrank Wien 8","website":"https://www.wien.gv.at/bezirke/josefstadt/geschichte-kultur/buecherschrank.html","wheelchair":"yes"},"geometry":{"type":"Point","coordinates":[16.344295,48.210778]},"id":"QwNzE"},{"type":"Feature","properties":{"@id":"node/10969213886","amenity":"public_bookcase","name":"Büchertasche"},"geometry":{"type":"Point","coordinates":[16.350425,48.212621]},"id":"UwNzI"},{"type":"Feature","properties":{"@id":"node/1716505802","amenity":"public_bookcase","check_date":"2022-10-06","name":"Bücherzelle"},"geometry":{"type":"Point","coordinates":[16.400334,48.220987]},"id":"kyMDQ"},{"type":"Feature","properties":{"@id":"node/4111164063","amenity":"public_bookcase","brand":"Bücherzelle","check_date":"2022-10-29","lit":"no","name":"Bücherzelle","note":"Offene Bücherzelle","opening_hours":"24/7","public_bookcase:type":"phone_box"},"geometry":{"type":"Point","coordinates":[16.391155,48.197983]},"id":"gzNDY"},{"type":"Feature","properties":{"@id":"node/11215805576","amenity":"public_bookcase","brand":"Bücherzelle","name":"Bücherzelle"},"geometry":{"type":"Point","coordinates":[16.395434,48.22526]},"id":"YxNTE"},{"type":"Feature","properties":{"@id":"node/10618454545","amenity":"public_bookcase","covered":"yes","indoor":"yes","name":"Döblinger Bücherregal","wheelchair":"yes"},"geometry":{"type":"Point","coordinates":[16.358061,48.250813]},"id":"E1MTY"},{"type":"Feature","properties":{"@id":"node/10684127207","amenity":"public_bookcase","capacity":"150","colour":"grey","man_made":"telephone_box","name":"Hietzing Folkschule","public_bookcase:type":"phone_box"},"geometry":{"type":"Point","coordinates":[16.301723,48.185556]},"id":"Y5OTQ"},{"type":"Feature","properties":{"@id":"node/10739590352","amenity":"public_bookcase","indoor":"yes","name":"Kaufhaus Alterlaa Bücherschrank"},"geometry":{"type":"Point","coordinates":[16.31576,48.151377]},"id":"gxOTc"},{"type":"Feature","properties":{"@id":"node/10872929322","amenity":"public_bookcase","name":"Kunstbox","public_bookcase:type":"phone_box"},"geometry":{"type":"Point","coordinates":[16.401287,48.197293]},"id":"k5NzE"},{"type":"Feature","properties":{"@id":"node/5313333560","amenity":"public_bookcase","check_date":"2024-02-29","indoor":"no","name":"Nachbarschaftsregal","website":"https://www.aspern-seestadt.at/city-news/nachbarschaftsregal"},"geometry":{"type":"Point","coordinates":[16.501685,48.224177]},"id":"Y3MDg"},{"type":"Feature","properties":{"@id":"node/10676491833","amenity":"public_bookcase","brand":"BookCrossing","brand:wikidata":"Q324286","name":"OBCZ","operator":"Bookcrossing","public_bookcase:type":"reading_box"},"geometry":{"type":"Point","coordinates":[16.369817,48.209262]},"id":"I2OTQ"},{"type":"Feature","properties":{"@id":"node/10676491835","amenity":"public_bookcase","brand":"BookCrossing","brand:wikidata":"Q324286","name":"OBCZ","operator":"Flanagans","public_bookcase:type":"shelf"},"geometry":{"type":"Point","coordinates":[16.373649,48.20319]},"id":"k0MDY"},{"type":"Feature","properties":{"@id":"node/4341854789","amenity":"public_bookcase","check_date":"2023-02-04","name":"Offene Bibliothek Margareten"},"geometry":{"type":"Point","coordinates":[16.358919,48.19193]},"id":"E3MDA"},{"type":"Feature","properties":{"@id":"node/686405852","addr:city":"Wien","addr:country":"AT","addr:postcode":"1070","amenity":"public_bookcase","check_date":"2023-05-26","name":"Offener Bücherschrank","operator":"Frank Gassner","public_bookcase:type":"metal_cabinet","website":"https://www.offener-buecherschrank.at/neubau-der-erste/"},"geometry":{"type":"Point","coordinates":[16.345103,48.201939]},"id":"M2MzE"},{"type":"Feature","properties":{"@id":"node/2484040031","amenity":"public_bookcase","name":"Offener Bücherschrank","website":"https://www.offener-buecherschrank.at/ottakring-brunnenmarkt/"},"geometry":{"type":"Point","coordinates":[16.335762,48.209814]},"id":"YzOTM"},{"type":"Feature","properties":{"@id":"node/9085067391","amenity":"public_bookcase","man_made":"telephone_box","name":"offener Bücherschrank","public_bookcase:type":"phone_box"},"geometry":{"type":"Point","coordinates":[16.304984,48.222734]},"id":"A2MDQ"},{"type":"Feature","properties":{"@id":"node/7611751595","addr:housenumber":"10","addr:street":"Schubertgasse","amenity":"public_bookcase","name":"Offener Kinder-Bücherschrank"},"geometry":{"type":"Point","coordinates":[16.353919,48.227444]},"id":"Q4ODY"},{"type":"Feature","properties":{"@id":"node/10225739939","amenity":"public_bookcase","name":"Offenes Bücherrad"},"geometry":{"type":"Point","coordinates":[16.387835,48.214762]},"id":"g0NjI"},{"type":"Feature","properties":{"@id":"node/11258508218","access":"yes","amenity":"public_bookcase","name":"Wieden-Buch","opening_hours":"24/7","wheelchair":"limited"},"geometry":{"type":"Point","coordinates":[16.373301,48.186977]},"id":"MzNjM"},{"type":"Feature","properties":{"@id":"node/9445063189","amenity":"public_bookcase","name":"WiedenTausch","operator":"kaesch","website":"https://kaesch.at/"},"geometry":{"type":"Point","coordinates":[16.36829,48.195294]},"id":"U5ODU"},{"type":"Feature","properties":{"@id":"node/8775247987","amenity":"public_bookcase","name":"Wiedner Bücherschrank"},"geometry":{"type":"Point","coordinates":[16.375123,48.190652]},"id":"I0NTY"}],"_umap_options":{"displayOnLoad":true,"inCaption":true,"browsable":true,"editMode":"advanced","remoteData":{},"name":"book sharing","iconUrl":"/uploads/pictogram/books.svg","color":"DarkKhaki"}}